ORBCOMM FM40 [-]        
1 33065U 08031F   23254.20532472  .00002366  00000+0  36917-3 0  9995
2 33065  48.4429 149.1167 0007232 145.4844 354.6814 14.76031688818702
ORBCOMM FM109 [+]       
1 40086U 14040A   23254.51657305  .00001116  00000+0  28955-3 0  9995
2 40086  47.0036 175.2176 0002324 248.9471 111.1165 14.55885577487050
ORBCOMM FM107 [+]       
1 40087U 14040B   23254.48213218  .00001127  00000+0  29199-3 0  9996
2 40087  47.0055 176.3069 0001422 219.9190 140.1590 14.55885005487127
ORBCOMM FM106 [-]       
1 40088U 14040C   23254.12043365  .00001348  00000+0  27648-3 0  9994
2 40088  47.0626  48.7299 0018514 314.6460  45.2920 14.65957159488722
ORBCOMM FM111 [-]       
1 40089U 14040D   23254.27305056  .00002051  00000+0  29367-3 0  9991
2 40089  47.0073 336.8429 0033582 356.9136   3.1546 14.79891926494511
ORBCOMM FM104 [-]       
1 40090U 14040E   23254.55450173  .00000912  00000+0  25078-3 0  9994
2 40090  47.0051 202.2356 0016554 144.6560 215.5425 14.54448877486812
